[{"OBJECT_NAME":"SWARM B","OBJECT_ID":"2013-067A","EPOCH":"2026-03-09T22:20:48.706656","MEAN_MOTION":15.27862638,"ECCENTRICITY":0.00036996,"INCLINATION":87.749,"RA_OF_ASC_NODE":12.4162,"ARG_OF_PERICENTER":86.3179,"MEAN_ANOMALY":273.8493,"EPHEMERIS_TYPE":0,"CLASSIFICATION_TYPE":"U","NORAD_CAT_ID":39451,"ELEMENT_SET_NO":999,"REV_AT_EPOCH":66808,"BSTAR":0.00020534236,"MEAN_MOTION_DOT":5.616e-5,"MEAN_MOTION_DDOT":0},{"OBJECT_NAME":"STARLINK-31687","OBJECT_ID":"2024-093S","EPOCH":"2026-03-09T09:06:51.191424","MEAN_MOTION":15.27565564,"ECCENTRICITY":0.00010751,"INCLINATION":43.0026,"RA_OF_ASC_NODE":211.0201,"ARG_OF_PERICENTER":255.2513,"MEAN_ANOMALY":104.822,"EPHEMERIS_TYPE":0,"CLASSIFICATION_TYPE":"U","NORAD_CAT_ID":59798,"ELEMENT_SET_NO":999,"REV_AT_EPOCH":10264,"BSTAR":0.00011825804,"MEAN_MOTION_DOT":2.992e-5,"MEAN_MOTION_DDOT":0}]
